[{"OBJECT_NAME":"STARLINK-32460","OBJECT_ID":"2024-207C","EPOCH":"2026-03-09T00:20:23.620128","MEAN_MOTION":15.27590764,"ECCENTRICITY":0.00017001,"INCLINATION":43.0002,"RA_OF_ASC_NODE":285.1359,"ARG_OF_PERICENTER":273.0231,"MEAN_ANOMALY":87.0426,"EPHEMERIS_TYPE":0,"CLASSIFICATION_TYPE":"U","NORAD_CAT_ID":61914,"ELEMENT_SET_NO":999,"REV_AT_EPOCH":7462,"BSTAR":0.0010471334,"MEAN_MOTION_DOT":0.00028675,"MEAN_MOTION_DDOT":0},{"OBJECT_NAME":"OBJECT D","OBJECT_ID":"2025-197D","EPOCH":"2026-03-09T23:30:56.303712","MEAN_MOTION":15.25287442,"ECCENTRICITY":0.00144425,"INCLINATION":97.4091,"RA_OF_ASC_NODE":257.3677,"ARG_OF_PERICENTER":3.398,"MEAN_ANOMALY":356.7353,"EPHEMERIS_TYPE":0,"CLASSIFICATION_TYPE":"U","NORAD_CAT_ID":65491,"ELEMENT_SET_NO":999,"REV_AT_EPOCH":2822,"BSTAR":0.00037200129,"MEAN_MOTION_DOT":9.321e-5,"MEAN_MOTION_DDOT":0}]
